NORAD_CAT_ID,OBJECT_NAME,OBJECT_TYPE,EPOCH,MEAN_MOTION,ECCENTRICITY,INCLINATION,RA_OF_ASC_NODE,ARG_OF_PERICENTER,MEAN_ANOMALY,BSTAR,MEAN_MOTION_DOT,MEAN_MOTION_DDOT,TLE_LINE0,TLE_LINE1,TLE_LINE2,SEMIMAJOR_AXIS,PERIOD,APOGEE,PERIGEE,DECAYED
55648.0,STARLINK-5501,PAYLOAD,2023-06-16 22:00:00,15.16373202,0.000336,69.9982,178.0828,269.7197,108.3023,-0.047777,-0.00864997,0.0,0 STARLINK-5501,1 55648U 23021W   23167.91667824 -.00864997  00000-0 -47777-1 0  9996,2 55648  69.9982 178.0828 0003360 269.7197 108.3023 15.16373202  1301,6894.95,94.963,519.131,514.498,0.0
55648.0,STARLINK-5501,PAYLOAD,2023-06-17 06:00:02,15.15729143,0.0003319,69.9983,177.2189,273.0741,123.7732,-0.051093,-0.00905112,0.0,0 STARLINK-5501,1 55648U 23021W   23168.25002315 -.00905112  00000-0 -51093-1 0  9993,2 55648  69.9983 177.2189 0003319 273.0741 123.7732 15.15729143 19226,6896.903,95.004,521.057,516.479,0.0
55648.0,STARLINK-5501,PAYLOAD,2023-06-17 14:00:01,15.15127873,0.0003279,69.998,176.3559,276.9687,137.7669,-0.056388,-0.00976085,0.0,0 STARLINK-5501,1 55648U 23021W   23168.58334491 -.00976085  00000-0 -56388-1 0  9991,2 55648  69.9980 176.3559 0003279 276.9687 137.7669 15.15127873  1306,6898.727,95.041,522.854,518.33,0.0
55648.0,STARLINK-5501,PAYLOAD,2023-06-17 18:31:36,15.16548101,0.0004121,69.9967,175.8714,291.9367,68.1363,-0.013883,-0.00262097,0.0,0 STARLINK-5501,1 55648U 23021W   23168.77195302 -.00262097  00000-0 -13883-1 0  9992,2 55648  69.9967 175.8714 0004121 291.9367  68.1363 15.16548101 19609,6894.42,94.952,519.126,513.443,0.0
55648.0,STARLINK-5501,PAYLOAD,2023-06-18 06:00:00,15.13767302,0.0003263,69.9984,174.6326,274.1111,174.2493,-0.053498,-0.00897049,0.0,0 STARLINK-5501,1 55648U 23021W   23169.25001157 -.00897049  00000-0 -53498-1 0  9997,2 55648  69.9984 174.6326 0003263 274.1111 174.2493 15.13767302 19370,6902.86,95.127,526.978,522.473,0.0
55648.0,STARLINK-5501,PAYLOAD,2023-06-18 10:23:04,15.15153765,0.000374,69.9976,174.1651,279.7471,80.3274,-0.014854,-0.00269246,0.0,0 STARLINK-5501,1 55648U 23021W   23169.43268844 -.00269246  00000-0 -14854-1 0  9990,2 55648  69.9976 174.1651 0003740 279.7471  80.3274 15.15153765 19702,6898.649,95.04,523.094,517.934,0.0
55648.0,STARLINK-5501,PAYLOAD,2023-06-18 22:00:00,15.12472545,0.0003165,69.9985,172.9126,271.2724,207.5462,-0.054744,-0.00885966,0.0,0 STARLINK-5501,1 55648U 23021W   23169.91667824 -.00885966  00000-0 -54744-1 0  9999,2 55648  69.9985 172.9126 0003165 271.2724 207.5462 15.12472545 19477,6906.799,95.208,530.85,526.478,0.0
55648.0,STARLINK-5501,PAYLOAD,2023-06-19 10:11:37,15.13214763,0.0004107,69.9979,171.6084,275.9148,84.155,-0.0157,-0.00269457,0.0,0 STARLINK-5501,1 55648U 23021W   23170.42473945 -.00269457  00000-0 -15700-1 0  9996,2 55648  69.9979 171.6084 0004107 275.9148  84.1550 15.13214763 19550,6904.541,95.162,529.241,523.57,0.0
55648.0,STARLINK-5501,PAYLOAD,2023-06-19 22:00:00,15.10521635,0.0003121,69.9988,170.3394,270.5754,248.0814,-0.058514,-0.00896121,0.0,0 STARLINK-5501,1 55648U 23021W   23170.91667824 -.00896121  00000-0 -58514-1 0  9995,2 55648  69.9988 170.3394 0003121 270.5754 248.0814 15.10521635 19627,6912.745,95.331,536.768,532.453,0.0
55648.0,STARLINK-5501,PAYLOAD,2023-06-20 14:00:01,15.09254642,0.0003031,69.9987,168.6281,272.8725,268.4254,-0.06634,-0.00974468,0.0,0 STARLINK-5501,1 55648U 23021W   23171.58334491 -.00974468  00000-0 -66340-1 0  9997,2 55648  69.9987 168.6281 0003031 272.8725 268.4254 15.09254642 19728,6916.613,95.411,540.575,536.382,0.0
55648.0,STARLINK-5501,PAYLOAD,2023-06-20 22:00:00,15.08568704,0.0003067,69.9991,167.7739,266.6071,284.8474,-0.062262,-0.00903013,0.0,0 STARLINK-5501,1 55648U 23021W   23171.91667824 -.00903013  00000-0 -62262-1 0  9990,2 55648  69.9991 167.7739 0003067 266.6071 284.8474 15.08568704  1302,6918.71,95.455,542.697,538.453,0.0
55648.0,STARLINK-5501,PAYLOAD,2023-06-21 06:00:00,15.07889669,0.0003161,69.9991,166.9204,272.5591,288.2818,-0.061778,-0.0088116,0.0,0 STARLINK-5501,1 55648U 23021W   23172.25001157 -.00881160  00000-0 -61778-1 0  9998,2 55648  69.9991 166.9204 0003161 272.5591 288.2818 15.07889669 19829,6920.787,95.498,544.839,540.464,0.0
55648.0,STARLINK-5501,PAYLOAD,2023-06-21 14:00:01,15.07294243,0.0003068,69.999,166.0679,272.2157,297.1897,-0.069657,-0.00970073,0.0,0 STARLINK-5501,1 55648U 23021W   23172.58334491 -.00970073  00000-0 -69657-1 0  9990,2 55648  69.9990 166.0679 0003068 272.2157 297.1897 15.07294243  1304,6922.609,95.535,546.598,542.35,0.0
55648.0,STARLINK-5501,PAYLOAD,2023-06-21 22:00:01,15.06615271,0.0003098,69.9993,165.2162,266.3421,310.9332,-0.066107,-0.00908595,0.0,0 STARLINK-5501,1 55648U 23021W   23172.91668981 -.00908595  00000-0 -66107-1 0  9998,2 55648  69.9993 165.2162 0003098 266.3421 310.9332 15.06615271 19928,6924.689,95.578,548.699,544.409,0.0
55648.0,STARLINK-5501,PAYLOAD,2023-06-22 14:00:01,15.05334922,0.0003094,69.9992,163.5153,271.6379,318.8338,-0.073188,-0.00978152,0.0,0 STARLINK-5501,1 55648U 23021W   23173.58334491 -.00978152  00000-0 -73188-1 0  9991,2 55648  69.9992 163.5153 0003094 271.6379 318.8338 15.05334922 20021,6928.615,95.66,552.624,548.336,0.0
55648.0,STARLINK-5501,PAYLOAD,2023-06-22 20:00:01,15.04792757,0.000312,69.9993,162.8784,267.4536,237.1972,-0.06568,-0.00862767,0.0,0 STARLINK-5501,1 55648U 23021W   23173.83334491 -.00862767  00000-0 -65680-1 0  9991,2 55648  69.9993 162.8784 0003120 267.4536 237.1972 15.04792757 20066,6930.279,95.694,554.306,549.982,0.0
55648.0,STARLINK-5501,PAYLOAD,2023-06-23 06:00:00,15.03974729,0.0003198,69.9995,161.8179,269.398,331.2272,-0.068325,-0.00876969,0.0,0 STARLINK-5501,1 55648U 23021W   23174.25001157 -.00876969  00000-0 -68325-1 0  9996,2 55648  69.9995 161.8179 0003198 269.3980 331.2272 15.03974729 20120,6932.792,95.746,556.874,552.44,0.0
55648.0,STARLINK-5501,PAYLOAD,2023-06-23 22:00:01,15.02708432,0.0003184,69.9995,160.1238,263.7957,343.8746,-0.074424,-0.00920068,0.0,0 STARLINK-5501,1 55648U 23021W   23174.91668981 -.00920068  00000-0 -74424-1 0  9990,2 55648  69.9995 160.1238 0003184 263.7957 343.8746 15.02708432 20226,6936.686,95.827,560.759,556.342,0.0
55648.0,STARLINK-5501,PAYLOAD,2023-06-24 22:00:00,15.00756916,0.0003191,69.9995,157.589,264.9033,347.3404,-0.079209,-0.00939768,0.0,0 STARLINK-5501,1 55648U 23021W   23175.91667824 -.00939768  00000-0 -79209-1 0  9999,2 55648  69.9995 157.5890 0003191 264.9033 347.3404 15.00756916 20381,6942.698,95.952,566.778,562.348,0.0
55648.0,STARLINK-5501,PAYLOAD,2023-06-25 14:00:01,14.99357791,0.0003213,69.9992,155.9032,273.8309,337.6053,-0.0095385,-0.00115089,0.0,0 STARLINK-5501,1 55648U 23021W   23176.58334491 -.00115089  00000-0 -95385-2 0  9990,2 55648  69.9992 155.9032 0003213 273.8309 337.6053 14.99357791 20486,6947.016,96.041,571.113,566.649,0.0
55648.0,STARLINK-5501,PAYLOAD,2023-06-25 22:00:01,14.99289067,0.0003263,69.9994,155.0612,267.9007,342.2603,0.0023769,0.00029102,0.0,0 STARLINK-5501,1 55648U 23021W   23176.91668981  .00029102  00000-0  23769-2 0  9996,2 55648  69.9994 155.0612 0003263 267.9007 342.2603 14.99289067 20536,6947.229,96.046,571.361,566.827,0.0
55648.0,STARLINK-5501,PAYLOAD,2023-06-26 14:00:01,14.99316962,0.0003299,69.999,153.3778,272.0089,335.376,-0.0037114,-0.00045235,0.0,0 STARLINK-5501,1 55648U 23021W   23177.58334491 -.00045235  00000-0 -37114-2 0  9992,2 55648  69.9990 153.3778 0003299 272.0089 335.3760 14.99316962 20624,6947.142,96.044,571.299,566.716,0.0
55648.0,STARLINK-5501,PAYLOAD,2023-06-26 22:00:00,14.99299165,0.0003303,69.9993,152.5361,266.6505,339.378,0.0021144,0.00025873,0.0,0 STARLINK-5501,1 55648U 23021W   23177.91667824  .00025873  00000-0  21144-2 0  9998,2 55648  69.9993 152.5361 0003303 266.6505 339.3780 14.99299165 20670,6947.197,96.045,571.357,566.768,0.0
55648.0,STARLINK-5501,PAYLOAD,2023-06-27 14:00:01,14.99314231,0.0003295,69.9989,150.8525,270.0517,333.2835,-0.003429,-0.00041818,0.0,0 STARLINK-5501,1 55648U 23021W   23178.58334491 -.00041818  00000-0 -34290-2 0  9998,2 55648  69.9989 150.8525 0003295 270.0517 333.2835 14.99314231 20777,6947.151,96.044,571.305,566.727,0.0
55648.0,STARLINK-5501,PAYLOAD,2023-06-28 06:00:00,14.99298251,0.0003291,69.9991,149.1691,271.7029,328.9342,0.00013059,1.504e-05,0.0,0 STARLINK-5501,1 55648U 23021W   23179.25001157  .00001504  00000-0  13059-3 0  9990,2 55648  69.9991 149.1691 0003291 271.7029 328.9342 14.99298251 20875,6947.2,96.045,571.352,566.779,0.0
55648.0,STARLINK-5501,PAYLOAD,2023-06-29 08:09:02,14.99301214,0.0003103,69.9983,146.4183,270.4054,89.675,1.3615e-06,-7.7e-07,0.0,0 STARLINK-5501,1 55648U 23021W   23180.33961669 -.00000077  00000-0  13615-5 0  9999,2 55648  69.9983 146.4183 0003103 270.4054  89.6750 14.99301214 21046,6947.191,96.045,571.212,566.9,0.0
55648.0,STARLINK-5501,PAYLOAD,2023-06-30 14:34:25,14.992996,0.0003096,69.9985,143.217,271.649,88.4315,-1.9443e-05,-3.32e-06,0.0,0 STARLINK-5501,1 55648U 23021W   23181.60723572 -.00000332  00000-0 -19443-4 0  9998,2 55648  69.9985 143.2170 0003096 271.6490  88.4315 14.99299600 21237,6947.196,96.045,571.212,566.91,0.0
55648.0,STARLINK-5501,PAYLOAD,2023-07-01 14:35:30,14.99297848,0.0003039,69.9988,140.6903,270.9739,89.1072,-7.7051e-06,-1.88e-06,0.0,0 STARLINK-5501,1 55648U 23021W   23182.60799085 -.00000188  00000-0 -77051-5 0  9990,2 55648  69.9988 140.6903 0003039 270.9739  89.1072 14.99297848 21386,6947.202,96.045,571.178,566.955,0.0
55648.0,STARLINK-5501,PAYLOAD,2023-07-02 06:36:13,14.99305126,0.0003051,69.9987,139.0055,270.6522,89.4288,1.0007e-05,2.9e-07,0.0,0 STARLINK-5501,1 55648U 23021W   23183.27515290  .00000029  00000-0  10007-4 0  9997,2 55648  69.9987 139.0055 0003051 270.6522  89.4288 14.99305126 21488,6947.179,96.044,571.164,566.924,0.0
55648.0,STARLINK-5501,PAYLOAD,2023-07-03 06:37:18,14.99300041,0.0003095,69.9987,136.4781,270.0147,90.0658,7.254e-05,7.94e-06,0.0,0 STARLINK-5501,1 55648U 23021W   23184.27590610  .00000794  00000-0  72540-4 0  9996,2 55648  69.9987 136.4781 0003095 270.0147  90.0658 14.99300041 21637,6947.195,96.045,571.21,566.91,0.0
